{
  "type": "FeatureCollection",
  "features": [
    {
      "type": "Feature",
      "properties": {
        "norad_id": 2807,
        "name": "OPS 7218 (TRANSIT 16)",
        "group": "nnss",
        "lat": -16.305020483361993,
        "lon": 173.78131444098562,
        "alt_km": 1079.6923559803154,
        "timestamp": "2025-12-22T16:55:17.731476+00:00",
        "meta_object_name": "OPS 7218 (TRANSIT 16)",
        "meta_object_id": "1967-048A",
        "meta_epoch": "2025-12-22T07:07:30.399168",
        "meta_mean_motion": 13.50724279,
        "meta_eccentricity": 0.0022163,
        "meta_inclination": 89.6731,
        "meta_ra_of_asc_node": 353.6991,
        "meta_arg_of_pericenter": 88.6181,
        "meta_mean_anomaly": 283.6624,
        "meta_ephemeris_type": 0,
        "meta_classification_type": "U",
        "meta_norad_cat_id": 2807,
        "meta_element_set_no": 999,
        "meta_rev_at_epoch": 88405,
        "meta_bstar": 0.00015663872,
        "meta_mean_motion_dot": 1.11e-06,
        "meta_mean_motion_ddot": 0,
        "tle_line1": "1 02807U 67048A   25356.29687962  .00000111  00000+0  15664-3 0  9999",
        "tle_line2": "2 02807  89.6731 353.6991 0022163  88.6181 283.6624 13.50724279884051"
      },
      "geometry": {
        "type": "Point",
        "coordinates": [
          173.78131444098562,
          -16.305020483361993
        ]
      }
    },
    {
      "type": "Feature",
      "properties": {
        "norad_id": 2965,
        "name": "OPS 4947 (TRANSIT 17)",
        "group": "nnss",
        "lat": -1.5606040211976346,
        "lon": 23.65494132132813,
        "alt_km": 1093.9343864584926,
        "timestamp": "2025-12-22T16:55:17.731499+00:00",
        "meta_object_name": "OPS 4947 (TRANSIT 17)",
        "meta_object_id": "1967-092A",
        "meta_epoch": "2025-12-22T03:02:10.193568",
        "meta_mean_motion": 13.53456022,
        "meta_eccentricity": 0.00468609,
        "meta_inclination": 89.2487,
        "meta_ra_of_asc_node": 23.7195,
        "meta_arg_of_pericenter": 206.585,
        "meta_mean_anomaly": 214.414,
        "meta_ephemeris_type": 0,
        "meta_classification_type": "U",
        "meta_norad_cat_id": 2965,
        "meta_element_set_no": 999,
        "meta_rev_at_epoch": 87224,
        "meta_bstar": 0.00020254202,
        "meta_mean_motion_dot": 1.48e-06,
        "meta_mean_motion_ddot": 0,
        "tle_line1": "1 02965U 67092A   25356.12650687  .00000148  00000+0  20254-3 0  9990",
        "tle_line2": "2 02965  89.2487  23.7195 0046860 206.5850 214.4140 13.53456022872249"
      },
      "geometry": {
        "type": "Point",
        "coordinates": [
          23.65494132132813,
          -1.5606040211976346
        ]
      }
    },
    {
      "type": "Feature",
      "properties": {
        "norad_id": 3133,
        "name": "OPS 7034 (TRANSIT 18)",
        "group": "nnss",
        "lat": 79.06940119722083,
        "lon": -86.4804024118629,
        "alt_km": 1032.2616393937524,
        "timestamp": "2025-12-22T16:55:17.731512+00:00",
        "meta_object_name": "OPS 7034 (TRANSIT 18)",
        "meta_object_id": "1968-012A",
        "meta_epoch": "2025-12-22T06:25:37.347168",
        "meta_mean_motion": 13.51567891,
        "meta_eccentricity": 0.00747519,
        "meta_inclination": 90.0285,
        "meta_ra_of_asc_node": 273.666,
        "meta_arg_of_pericenter": 141.7172,
        "meta_mean_anomaly": 331.7744,
        "meta_ephemeris_type": 0,
        "meta_classification_type": "U",
        "meta_norad_cat_id": 3133,
        "meta_element_set_no": 999,
        "meta_rev_at_epoch": 57047,
        "meta_bstar": 0.0002044581,
        "meta_mean_motion_dot": 1.46e-06,
        "meta_mean_motion_ddot": 0,
        "tle_line1": "1 03133U 68012A   25356.26779337  .00000146  00000+0  20446-3 0  9991",
        "tle_line2": "2 03133  90.0285 273.6660 0074751 141.7172 331.7744 13.51567891570471"
      },
      "geometry": {
        "type": "Point",
        "coordinates": [
          -86.4804024118629,
          79.06940119722083
        ]
      }
    },
    {
      "type": "Feature",
      "properties": {
        "norad_id": 4507,
        "name": "NNSS 19 (TRANSIT 19)",
        "group": "nnss",
        "lat": 43.51330501262036,
        "lon": -125.46418329861125,
        "alt_km": 1159.0876391423753,
        "timestamp": "2025-12-22T16:55:17.731525+00:00",
        "meta_object_name": "NNSS 19 (TRANSIT 19)",
        "meta_object_id": "1970-067A",
        "meta_epoch": "2025-12-22T04:15:50.307840",
        "meta_mean_motion": 13.51317016,
        "meta_eccentricity": 0.01702227,
        "meta_inclination": 90.005,
        "meta_ra_of_asc_node": 234.5403,
        "meta_arg_of_pericenter": 265.7563,
        "meta_mean_anomaly": 92.4121,
        "meta_ephemeris_type": 0,
        "meta_classification_type": "U",
        "meta_norad_cat_id": 4507,
        "meta_element_set_no": 999,
        "meta_rev_at_epoch": 72349,
        "meta_bstar": 0.00016328627,
        "meta_mean_motion_dot": 1.24e-06,
        "meta_mean_motion_ddot": 0,
        "tle_line1": "1 04507U 70067A   25356.17766560  .00000124  00000+0  16329-3 0  9995",
        "tle_line2": "2 04507  90.0050 234.5403 0170222 265.7563  92.4121 13.51317016723493"
      },
      "geometry": {
        "type": "Point",
        "coordinates": [
          -125.46418329861125,
          43.51330501262036
        ]
      }
    },
    {
      "type": "Feature",
      "properties": {
        "norad_id": 6909,
        "name": "NNSS 20 (TRANSIT 20)",
        "group": "nnss",
        "lat": 62.499529798840186,
        "lon": 74.6284689325745,
        "alt_km": 944.9396519053971,
        "timestamp": "2025-12-22T16:55:17.731536+00:00",
        "meta_object_name": "NNSS 20 (TRANSIT 20)",
        "meta_object_id": "1973-081A",
        "meta_epoch": "2025-12-22T02:21:26.013600",
        "meta_mean_motion": 13.71439096,
        "meta_eccentricity": 0.0156327,
        "meta_inclination": 89.8562,
        "meta_ra_of_asc_node": 254.914,
        "meta_arg_of_pericenter": 50.5929,
        "meta_mean_anomaly": 310.8956,
        "meta_ephemeris_type": 0,
        "meta_classification_type": "U",
        "meta_norad_cat_id": 6909,
        "meta_element_set_no": 999,
        "meta_rev_at_epoch": 80489,
        "meta_bstar": 0.00027894557,
        "meta_mean_motion_dot": 2.85e-06,
        "meta_mean_motion_ddot": 0,
        "tle_line1": "1 06909U 73081A   25356.09821775  .00000285  00000+0  27895-3 0  9991",
        "tle_line2": "2 06909  89.8562 254.9140 0156327  50.5929 310.8956 13.71439096804897"
      },
      "geometry": {
        "type": "Point",
        "coordinates": [
          74.6284689325745,
          62.499529798840186
        ]
      }
    },
    {
      "type": "Feature",
      "properties": {
        "norad_id": 10457,
        "name": "TRANSAT",
        "group": "nnss",
        "lat": -37.65137507798583,
        "lon": 77.97248599735701,
        "alt_km": 1101.075061757413,
        "timestamp": "2025-12-22T16:55:17.731547+00:00",
        "meta_object_name": "TRANSAT",
        "meta_object_id": "1977-106A",
        "meta_epoch": "2025-12-22T04:43:59.924640",
        "meta_mean_motion": 13.48945163,
        "meta_eccentricity": 0.0026228,
        "meta_inclination": 89.6479,
        "meta_ra_of_asc_node": 78.2623,
        "meta_arg_of_pericenter": 162.6687,
        "meta_mean_anomaly": 214.9455,
        "meta_ephemeris_type": 0,
        "meta_classification_type": "U",
        "meta_norad_cat_id": 10457,
        "meta_element_set_no": 999,
        "meta_rev_at_epoch": 36871,
        "meta_bstar": 0.00016513241,
        "meta_mean_motion_dot": 1.14e-06,
        "meta_mean_motion_ddot": 0,
        "tle_line1": "1 10457U 77106A   25356.19722135  .00000114  00000+0  16513-3 0  9993",
        "tle_line2": "2 10457  89.6479  78.2623 0026228 162.6687 214.9455 13.48945163368715"
      },
      "geometry": {
        "type": "Point",
        "coordinates": [
          77.97248599735701,
          -37.65137507798583
        ]
      }
    },
    {
      "type": "Feature",
      "properties": {
        "norad_id": 12458,
        "name": "NOVA 1",
        "group": "nnss",
        "lat": 24.135735311225897,
        "lon": 91.31042890065542,
        "alt_km": 1164.7461039261689,
        "timestamp": "2025-12-22T16:55:17.731558+00:00",
        "meta_object_name": "NOVA 1",
        "meta_object_id": "1981-044A",
        "meta_epoch": "2025-12-22T05:59:49.105824",
        "meta_mean_motion": 13.232795,
        "meta_eccentricity": 0.00158229,
        "meta_inclination": 89.8526,
        "meta_ra_of_asc_node": 91.2508,
        "meta_arg_of_pericenter": 80.6324,
        "meta_mean_anomaly": 296.5588,
        "meta_ephemeris_type": 0,
        "meta_classification_type": "U",
        "meta_norad_cat_id": 12458,
        "meta_element_set_no": 999,
        "meta_rev_at_epoch": 15312,
        "meta_bstar": 0.00014988057,
        "meta_mean_motion_dot": 7.3e-07,
        "meta_mean_motion_ddot": 0,
        "tle_line1": "1 12458U 81044A   25356.24987391  .00000073  00000+0  14988-3 0  9993",
        "tle_line2": "2 12458  89.8526  91.2508 0015822  80.6324 296.5588 13.23279500153123"
      },
      "geometry": {
        "type": "Point",
        "coordinates": [
          91.31042890065542,
          24.135735311225897
        ]
      }
    }
  ]
}